[{"OBJECT_NAME":"SONATE-2","OBJECT_ID":"2024-043Q","EPOCH":"2026-03-09T22:01:02.618688","MEAN_MOTION":15.51375867,"ECCENTRICITY":0.00078362,"INCLINATION":97.5397,"RA_OF_ASC_NODE":213.8574,"ARG_OF_PERICENTER":203.8793,"MEAN_ANOMALY":156.2096,"EPHEMERIS_TYPE":0,"CLASSIFICATION_TYPE":"U","NORAD_CAT_ID":59112,"ELEMENT_SET_NO":999,"REV_AT_EPOCH":11246,"BSTAR":0.00067640221,"MEAN_MOTION_DOT":0.00039886,"MEAN_MOTION_DDOT":0},{"OBJECT_NAME":"STARLINK-31725","OBJECT_ID":"2024-074E","EPOCH":"2026-03-09T22:00:01.999584","MEAN_MOTION":15.54053512,"ECCENTRICITY":0.00145121,"INCLINATION":42.9967,"RA_OF_ASC_NODE":323.6611,"ARG_OF_PERICENTER":238.6665,"MEAN_ANOMALY":359.4797,"EPHEMERIS_TYPE":0,"CLASSIFICATION_TYPE":"U","NORAD_CAT_ID":59538,"ELEMENT_SET_NO":999,"REV_AT_EPOCH":589,"BSTAR":0.0045341754,"MEAN_MOTION_DOT":0.00314571,"MEAN_MOTION_DDOT":0}]
